IRIDIUM 33 DEB          
1 36080U 97051VM  26111.82142268  .00001132  00000+0  30381-3 0  9997
2 36080  86.3162 311.3028 0019377  90.4579 269.8844 14.47196504492955
IRIDIUM 33 DEB          
1 36083U 97051VQ  26115.37065032  .00001313  00000+0  37860-3 0  9997
2 36083  86.3443 336.6253 0027447 140.5610 219.7596 14.43763083873779
IRIDIUM 33 DEB          
1 36390U 97051VU  26107.63836251  .00004176  00000+0  60593-3 0  9996
2 36390  86.2949 241.5792 0030094  93.5912 266.8750 14.75483411681171
IRIDIUM 33 DEB          
1 36483U 97051VZ  26103.96176541  .00000905  00000+0  24684-3 0  9997
2 36483  86.3839   0.1649 0011408  83.0785 277.1715 14.46316988669122
IRIDIUM 33 DEB          
1 36490U 97051WG  26115.81865738  .00009685  00000+0  12842-2 0  9991
2 36490  86.3612 309.8051 0001914   1.7916 358.3311 14.79763901884657
IRIDIUM 33 DEB          
1 36493U 97051WK  26116.77517925  .00006732  00000+0  11908-2 0  9994
2 36493  86.3543 311.5941 0008240 241.7545 118.2838 14.67238486764975
IRIDIUM 33 DEB          
1 36497U 97051WP  26115.47110710  .00005733  00000+0  10368-2 0  9994
2 36497  86.1575 191.4063 0045524  28.0149 332.3499 14.65551792676097
IRIDIUM 33 DEB          
1 37548U 97051XH  26114.35938007  .00001903  00000+0  46025-3 0  9990
2 37548  86.3532 345.6205 0026470 105.7034 254.7095 14.52391145674565
IRIDIUM 33 DEB          
1 37550U 97051XK  26116.33853251  .00006792  00000+0  11442-2 0  9995
2 37550  86.3759 324.1261 0004395  44.9557 315.2013 14.69412166883086
IRIDIUM 33 DEB          
1 37562U 97051XX  26116.39028997  .00004232  00000+0  91443-3 0  9992
2 37562  86.3767 344.8360 0024933  16.4941 108.5777 14.57932151882894
IRIDIUM 33 DEB          
1 37565U 97051YA  26099.33400274  .00001712  00000+0  41706-3 0  9998
2 37565  86.3473 318.3481 0014606  52.1997 308.0529 14.52140920675437
IRIDIUM 33 DEB          
1 38017U 97051YD  26114.95771152  .00005664  00000+0  13172-2 0  9998
2 38017  86.3373 108.0925 0087010  24.4788 336.0510 14.52435147633348
IRIDIUM 33 DEB          
1 38022U 97051YJ  26111.83157768  .00002085  00000+0  61839-3 0  9997
2 38022  86.2662 319.4368 0043819 341.5723  18.3887 14.42362653710684
IRIDIUM 33 DEB          
1 38028U 97051YQ  26116.79024152  .00000772  00000+0  20728-3 0  9996
2 38028  86.3211 301.5532 0029098  37.8243 322.4997 14.46619979674478
IRIDIUM 33 DEB          
1 38228U 97051ZC  26115.41119253  .00000525  00000+0  20078-3 0  9997
2 38228  86.2970 351.6484 0065522 119.2958  60.0617 14.27525729866883
IRIDIUM 33 DEB          
1 38241U 97051ZR  26115.23106215  .00002696  00000+0  61126-3 0  9996
2 38241  86.3177 291.6624 0002781  11.0460 349.0809 14.55789284621423
