[{"OBJECT_NAME":"IRIDIUM 33 DEB","OBJECT_ID":"1997-051VM","EPOCH":"2026-04-21T19:42:50.919552","MEAN_MOTION":14.47196504,"ECCENTRICITY":0.00193776,"INCLINATION":86.3162,"RA_OF_ASC_NODE":311.3028,"ARG_OF_PERICENTER":90.4579,"MEAN_ANOMALY":269.8844,"EPHEMERIS_TYPE":0,"CLASSIFICATION_TYPE":"U","NORAD_CAT_ID":36080,"ELEMENT_SET_NO":999,"REV_AT_EPOCH":49295,"BSTAR":0.00030381028,"MEAN_MOTION_DOT":1.132e-5,"MEAN_MOTION_DDOT":0},{"OBJECT_NAME":"IRIDIUM 33 DEB","OBJECT_ID":"1997-051VQ","EPOCH":"2026-04-25T08:53:44.187648","MEAN_MOTION":14.43763083,"ECCENTRICITY":0.0027447,"INCLINATION":86.3443,"RA_OF_ASC_NODE":336.6253,"ARG_OF_PERICENTER":140.561,"MEAN_ANOMALY":219.7596,"EPHEMERIS_TYPE":0,"CLASSIFICATION_TYPE":"U","NORAD_CAT_ID":36083,"ELEMENT_SET_NO":999,"REV_AT_EPOCH":87377,"BSTAR":0.00037860029,"MEAN_MOTION_DOT":1.313e-5,"MEAN_MOTION_DDOT":0},{"OBJECT_NAME":"IRIDIUM 33 DEB","OBJECT_ID":"1997-051VU","EPOCH":"2026-04-17T15:19:14.520864","MEAN_MOTION":14.75483411,"ECCENTRICITY":0.00300948,"INCLINATION":86.2949,"RA_OF_ASC_NODE":241.5792,"ARG_OF_PERICENTER":93.5912,"MEAN_ANOMALY":266.875,"EPHEMERIS_TYPE":0,"CLASSIFICATION_TYPE":"U","NORAD_CAT_ID":36390,"ELEMENT_SET_NO":999,"REV_AT_EPOCH":68117,"BSTAR":0.00060593054,"MEAN_MOTION_DOT":4.176e-5,"MEAN_MOTION_DDOT":0},{"OBJECT_NAME":"IRIDIUM 33 DEB","OBJECT_ID":"1997-051VZ","EPOCH":"2026-04-13T23:04:56.531424","MEAN_MOTION":14.46316988,"ECCENTRICITY":0.00114086,"INCLINATION":86.3839,"RA_OF_ASC_NODE":0.1649,"ARG_OF_PERICENTER":83.0785,"MEAN_ANOMALY":277.1715,"EPHEMERIS_TYPE":0,"CLASSIFICATION_TYPE":"U","NORAD_CAT_ID":36483,"ELEMENT_SET_NO":999,"REV_AT_EPOCH":66912,"BSTAR":0.00024684378,"MEAN_MOTION_DOT":9.05e-6,"MEAN_MOTION_DDOT":0},{"OBJECT_NAME":"IRIDIUM 33 DEB","OBJECT_ID":"1997-051WG","EPOCH":"2026-04-25T19:38:51.997632","MEAN_MOTION":14.79763901,"ECCENTRICITY":0.00019142,"INCLINATION":86.3612,"RA_OF_ASC_NODE":309.8051,"ARG_OF_PERICENTER":1.7916,"MEAN_ANOMALY":358.3311,"EPHEMERIS_TYPE":0,"CLASSIFICATION_TYPE":"U","NORAD_CAT_ID":36490,"ELEMENT_SET_NO":999,"REV_AT_EPOCH":88465,"BSTAR":0.001284166,"MEAN_MOTION_DOT":9.685e-5,"MEAN_MOTION_DDOT":0},{"OBJECT_NAME":"IRIDIUM 33 DEB","OBJECT_ID":"1997-051WK","EPOCH":"2026-04-26T18:36:15.487200","MEAN_MOTION":14.67238486,"ECCENTRICITY":0.000824,"INCLINATION":86.3543,"RA_OF_ASC_NODE":311.5941,"ARG_OF_PERICENTER":241.7545,"MEAN_ANOMALY":118.2838,"EPHEMERIS_TYPE":0,"CLASSIFICATION_TYPE":"U","NORAD_CAT_ID":36493,"ELEMENT_SET_NO":999,"REV_AT_EPOCH":76497,"BSTAR":0.0011908,"MEAN_MOTION_DOT":6.732e-5,"MEAN_MOTION_DDOT":0},{"OBJECT_NAME":"IRIDIUM 33 DEB","OBJECT_ID":"1997-051WP","EPOCH":"2026-04-25T11:18:23.653440","MEAN_MOTION":14.65551792,"ECCENTRICITY":0.00455248,"INCLINATION":86.1575,"RA_OF_ASC_NODE":191.4063,"ARG_OF_PERICENTER":28.0149,"MEAN_ANOMALY":332.3499,"EPHEMERIS_TYPE":0,"CLASSIFICATION_TYPE":"U","NORAD_CAT_ID":36497,"ELEMENT_SET_NO":999,"REV_AT_EPOCH":67609,"BSTAR":0.001036767,"MEAN_MOTION_DOT":5.733e-5,"MEAN_MOTION_DDOT":0},{"OBJECT_NAME":"IRIDIUM 33 DEB","OBJECT_ID":"1997-051XH","EPOCH":"2026-04-24T08:37:30.438048","MEAN_MOTION":14.52391145,"ECCENTRICITY":0.00264702,"INCLINATION":86.3532,"RA_OF_ASC_NODE":345.6205,"ARG_OF_PERICENTER":105.7034,"MEAN_ANOMALY":254.7095,"EPHEMERIS_TYPE":0,"CLASSIFICATION_TYPE":"U","NORAD_CAT_ID":37548,"ELEMENT_SET_NO":999,"REV_AT_EPOCH":67456,"BSTAR":0.00046025443,"MEAN_MOTION_DOT":1.903e-5,"MEAN_MOTION_DDOT":0},{"OBJECT_NAME":"IRIDIUM 33 DEB","OBJECT_ID":"1997-051XK","EPOCH":"2026-04-26T08:07:29.208864","MEAN_MOTION":14.69412166,"ECCENTRICITY":0.00043958,"INCLINATION":86.3759,"RA_OF_ASC_NODE":324.1261,"ARG_OF_PERICENTER":44.9557,"MEAN_ANOMALY":315.2013,"EPHEMERIS_TYPE":0,"CLASSIFICATION_TYPE":"U","NORAD_CAT_ID":37550,"ELEMENT_SET_NO":999,"REV_AT_EPOCH":88308,"BSTAR":0.0011441574,"MEAN_MOTION_DOT":6.792e-5,"MEAN_MOTION_DDOT":0},{"OBJECT_NAME":"IRIDIUM 33 DEB","OBJECT_ID":"1997-051XX","EPOCH":"2026-04-26T09:22:01.053408","MEAN_MOTION":14.57932151,"ECCENTRICITY":0.00249334,"INCLINATION":86.3767,"RA_OF_ASC_NODE":344.836,"ARG_OF_PERICENTER":16.4941,"MEAN_ANOMALY":108.5777,"EPHEMERIS_TYPE":0,"CLASSIFICATION_TYPE":"U","NORAD_CAT_ID":37562,"ELEMENT_SET_NO":999,"REV_AT_EPOCH":88289,"BSTAR":0.00091443453,"MEAN_MOTION_DOT":4.232e-5,"MEAN_MOTION_DDOT":0},{"OBJECT_NAME":"IRIDIUM 33 DEB","OBJECT_ID":"1997-051YA","EPOCH":"2026-04-09T08:00:57.836736","MEAN_MOTION":14.5214092,"ECCENTRICITY":0.00146062,"INCLINATION":86.3473,"RA_OF_ASC_NODE":318.3481,"ARG_OF_PERICENTER":52.1997,"MEAN_ANOMALY":308.0529,"EPHEMERIS_TYPE":0,"CLASSIFICATION_TYPE":"U","NORAD_CAT_ID":37565,"ELEMENT_SET_NO":999,"REV_AT_EPOCH":67543,"BSTAR":0.00041706256,"MEAN_MOTION_DOT":1.712e-5,"MEAN_MOTION_DDOT":0},{"OBJECT_NAME":"IRIDIUM 33 DEB","OBJECT_ID":"1997-051YD","EPOCH":"2026-04-24T22:59:06.275328","MEAN_MOTION":14.52435147,"ECCENTRICITY":0.008701,"INCLINATION":86.3373,"RA_OF_ASC_NODE":108.0925,"ARG_OF_PERICENTER":24.4788,"MEAN_ANOMALY":336.051,"EPHEMERIS_TYPE":0,"CLASSIFICATION_TYPE":"U","NORAD_CAT_ID":38017,"ELEMENT_SET_NO":999,"REV_AT_EPOCH":63334,"BSTAR":0.0013172,"MEAN_MOTION_DOT":5.664e-5,"MEAN_MOTION_DDOT":0},{"OBJECT_NAME":"IRIDIUM 33 DEB","OBJECT_ID":"1997-051YJ","EPOCH":"2026-04-21T19:57:28.311552","MEAN_MOTION":14.42362653,"ECCENTRICITY":0.00438198,"INCLINATION":86.2662,"RA_OF_ASC_NODE":319.4368,"ARG_OF_PERICENTER":341.5723,"MEAN_ANOMALY":18.3887,"EPHEMERIS_TYPE":0,"CLASSIFICATION_TYPE":"U","NORAD_CAT_ID":38022,"ELEMENT_SET_NO":999,"REV_AT_EPOCH":71068,"BSTAR":0.00061838612,"MEAN_MOTION_DOT":2.085e-5,"MEAN_MOTION_DDOT":0},{"OBJECT_NAME":"IRIDIUM 33 DEB","OBJECT_ID":"1997-051YQ","EPOCH":"2026-04-26T18:57:56.867328","MEAN_MOTION":14.46619979,"ECCENTRICITY":0.0029098,"INCLINATION":86.3211,"RA_OF_ASC_NODE":301.5532,"ARG_OF_PERICENTER":37.8243,"MEAN_ANOMALY":322.4997,"EPHEMERIS_TYPE":0,"CLASSIFICATION_TYPE":"U","NORAD_CAT_ID":38028,"ELEMENT_SET_NO":999,"REV_AT_EPOCH":67447,"BSTAR":0.00020728,"MEAN_MOTION_DOT":7.72e-6,"MEAN_MOTION_DDOT":0},{"OBJECT_NAME":"IRIDIUM 33 DEB","OBJECT_ID":"1997-051ZC","EPOCH":"2026-04-25T09:52:07.034592","MEAN_MOTION":14.27525729,"ECCENTRICITY":0.00655226,"INCLINATION":86.297,"RA_OF_ASC_NODE":351.6484,"ARG_OF_PERICENTER":119.2958,"MEAN_ANOMALY":60.0617,"EPHEMERIS_TYPE":0,"CLASSIFICATION_TYPE":"U","NORAD_CAT_ID":38228,"ELEMENT_SET_NO":999,"REV_AT_EPOCH":86688,"BSTAR":0.0002007813,"MEAN_MOTION_DOT":5.25e-6,"MEAN_MOTION_DDOT":0},{"OBJECT_NAME":"IRIDIUM 33 DEB","OBJECT_ID":"1997-051ZR","EPOCH":"2026-04-25T05:32:43.769760","MEAN_MOTION":14.55789284,"ECCENTRICITY":0.0002781,"INCLINATION":86.3177,"RA_OF_ASC_NODE":291.6624,"ARG_OF_PERICENTER":11.046,"MEAN_ANOMALY":349.0809,"EPHEMERIS_TYPE":0,"CLASSIFICATION_TYPE":"U","NORAD_CAT_ID":38241,"ELEMENT_SET_NO":999,"REV_AT_EPOCH":62142,"BSTAR":0.00061126,"MEAN_MOTION_DOT":2.696e-5,"MEAN_MOTION_DDOT":0}]
